{"fetched_at":"2026-03-29T16:36:15Z","count":15609,"tles":[{"name":"STARLINK-30140","line1":"1 57458U 23107B   26087.74813642  .00002740  00000+0  11175-3 0  9990","line2":"2 57458  43.0000 231.7266 0001153 272.2516  87.8204 15.26751818148028","category":"Starlink"}]}