{
  "norad_id": 57458,
  "name": "STARLINK-30140",
  "history": [
    {
      "epoch": "2026-03-28T17:57:18.986688Z",
      "apogee_km": 486.3219530900333,
      "perigee_km": 484.73823054526747,
      "latitude_deg": 5.629927643540836e-05,
      "longitude_deg": 136.23341606886206,
      "height_km": 485.2755545083735,
      "semi_major_axis_km": 6863.66709181765,
      "eccentricity": 0.00011537,
      "inclination_deg": 43.0,
      "raan_deg": 231.7266,
      "arg_perigee_deg": 272.2516,
      "mean_anomaly_deg": 87.8204,
      "mean_motion_rev_day": 15.26751818
    }
  ]
}